{
  "type": "FeatureCollection",
  "features": [
    { "type": "Feature", "properties": { "name": "Main Transit Fire Department", "district": "Main-Transit Fire District", "station_number": "2", "address": "5560 Sheridan Drive, Buffalo, NY 14221" }, "geometry": { "type": "Point", "coordinates": [-78.72707, 42.9787] } },
    { "type": "Feature", "properties": { "name": "Main-Transit Fire Department", "district": "Main-Transit Fire District", "station_number": "1", "address": "6777 Main St, Amherst, NY 14221" }, "geometry": { "type": "Point", "coordinates": [-78.70194309, 42.96522543] } },
    { "type": "Feature", "properties": { "name": "Eggertsville Fire Department", "district": "Eggertsville Fire District", "station_number": "1", "address": "1880 Eggert Road, Amherst, NY 14226" }, "geometry": { "type": "Point", "coordinates": [-78.812013, 42.976442] } },
    { "type": "Feature", "properties": { "name": "North Bailey Fire Department", "district": "North Bailey Fire District", "station_number": "1", "address": "966 Sweet Home Road, Buffalo, NY 14226" }, "geometry": { "type": "Point", "coordinates": [-78.806275, 42.98926] } },
    { "type": "Feature", "properties": { "name": "Ellicott Creek Fire Department", "district": "Ellicott Creek Fire District", "station_number": "1", "address": "45 South Ellicott Creek Road, Buffalo, NY 14228" }, "geometry": { "type": "Point", "coordinates": [-78.820262, 43.0237] } },
    { "type": "Feature", "properties": { "name": "Ellicott Creek Fire Department", "district": "Ellicott Creek Fire District", "station_number": "2", "address": "3000 Sweet Home Road, Buffalo, NY 14228" }, "geometry": { "type": "Point", "coordinates": [-78.800292, 43.041612] } },
    { "type": "Feature", "properties": { "name": "Getzville Fire Department", "district": "Getzville Fire District", "station_number": "1", "address": "630 Dodge Road, Getzville, NY 14068" }, "geometry": { "type": "Point", "coordinates": [-78.76928, 43.02467] } },
    { "type": "Feature", "properties": { "name": "Getzville Fire Department", "district": "Getzville Fire District", "station_number": "2", "address": "1871 North Forest Road, Williamsville, NY 14221" }, "geometry": { "type": "Point", "coordinates": [-78.763707, 43.00692] } },
    { "type": "Feature", "properties": { "name": "Swormville Fire Department", "district": "Swormville Fire District", "station_number": "1", "address": "6971 Transit Road, East Amherst, NY 14051" }, "geometry": { "type": "Point", "coordinates": [-78.69603, 43.0391] } },
    { "type": "Feature", "properties": { "name": "East Amherst Fire Department", "district": "East Amherst Fire District", "station_number": "1", "address": "9100 Transit Road, East Amherst, NY 14051" }, "geometry": { "type": "Point", "coordinates": [-78.697646, 43.016241] } },
    { "type": "Feature", "properties": { "name": "East Amherst Fire Department", "district": "East Amherst Fire District", "station_number": "2", "address": "635 Ayer Road, Williamsville, NY 14221" }, "geometry": { "type": "Point", "coordinates": [-78.717496, 42.994902] } },
    { "type": "Feature", "properties": { "name": "Snyder Fire Department", "district": "Snyder Fire District", "station_number": "1", "address": "4531 Main Street, Buffalo, NY 14226" }, "geometry": { "type": "Point", "coordinates": [-78.782488, 42.96235] } },
    { "type": "Feature", "properties": { "name": "Williamsville Fire Department", "district": "Williamsville Fire District", "station_number": "1", "address": "5565 Main Street, Williamsville, NY 14221" }, "geometry": { "type": "Point", "coordinates": [-78.745744, 42.962315] } },
    { "type": "Feature", "properties": { "name": "Harris Hill Fire Department", "district": "Harris Hill Fire District", "station_number": "1", "address": "8630 Main Street, Williamsville, NY 14221" }, "geometry": { "type": "Point", "coordinates": [-78.671347, 42.966309] } },
    { "type": "Feature", "properties": { "name": "Clarence Fire Department", "district": "Clarence Fire District", "station_number": "1", "address": "10355 Main Street, Clarence, NY 14031" }, "geometry": { "type": "Point", "coordinates": [-78.603319, 42.977648] } },
    { "type": "Feature", "properties": { "name": "Clarence Center Fire Department", "district": "Clarence Center Fire District", "station_number": "1", "address": "9415 Clarence Center Road, Clarence Center, NY 14032" }, "geometry": { "type": "Point", "coordinates": [-78.639436, 43.010347] } },
    { "type": "Feature", "properties": { "name": "Newstead Fire Department", "district": "Newstead Fire District", "station_number": "1", "address": "5691-5801 Cummings Road, Akron, NY 14001" }, "geometry": { "type": "Point", "coordinates": [-78.516843, 43.001089] } },
    { "type": "Feature", "properties": { "name": "Newstead Fire Department", "district": "Newstead Fire District", "station_number": "2", "address": "12012 Rapids Road, Akron, NY 14001" }, "geometry": { "type": "Point", "coordinates": [-78.53758, 43.05308] } },
    { "type": "Feature", "properties": { "name": "Rapids Fire Department", "district": "Rapids Fire District", "station_number": "1", "address": "7195 Plank Road, Lockport, NY 14094" }, "geometry": { "type": "Point", "coordinates": [-78.63699, 43.09626] } },
    { "type": "Feature", "properties": { "name": "Rapids Fire Department", "district": "Rapids Fire District", "station_number": "2", "address": "6131 Old Beattie Road, Lockport, NY 14094" }, "geometry": { "type": "Point", "coordinates": [-78.679331, 43.125419] } },
    { "type": "Feature", "properties": { "name": "Akron Fire Department", "district": "Akron Fire District", "station_number": "1", "address": "1 Main Street, Akron, NY 14001" }, "geometry": { "type": "Point", "coordinates": [-78.502699, 43.019655] } }
  ]
}